NORAD_CAT_ID,OBJECT_NAME,OBJECT_TYPE,EPOCH,MEAN_MOTION,ECCENTRICITY,INCLINATION,RA_OF_ASC_NODE,ARG_OF_PERICENTER,MEAN_ANOMALY,BSTAR,MEAN_MOTION_DOT,MEAN_MOTION_DDOT,TLE_LINE0,TLE_LINE1,TLE_LINE2,SEMIMAJOR_AXIS,PERIOD,APOGEE,PERIGEE,DECAYED
54794.0,STARLINK-5392,PAYLOAD,2023-12-09 13:10:19,15.12109925,0.0001406,53.2163,120.7116,102.3134,257.8017,2.2198e-05,8.9e-07,0.0,0 STARLINK-5392,1 54794U 22175AN  23343.54883909  .00000089  00000-0  22198-4 0  9990,2 54794  53.2163 120.7116 0001406 102.3134 257.8017 15.12109925 56099,6907.904,95.231,530.74,528.797,0.0
54794.0,STARLINK-5392,PAYLOAD,2023-12-10 14:33:11,15.12115228,0.0001298,53.2175,115.9396,96.0564,264.0578,-5.2819e-05,-1.217e-05,0.0,0 STARLINK-5392,1 54794U 22175AN  23344.60638132 -.00001217  00000-0 -52819-4 0  9993,2 54794  53.2175 115.9396 0001298  96.0564 264.0578 15.12115228 56256,6907.887,95.231,530.649,528.856,0.0
54794.0,STARLINK-5392,PAYLOAD,2023-12-11 14:20:52,15.12112513,0.0001199,53.2176,111.4652,87.3194,272.7936,-3.6829e-06,-3.61e-06,0.0,0 STARLINK-5392,1 54794U 22175AN  23345.59782718 -.00000361  00000-0 -36829-5 0  9995,2 54794  53.2176 111.4652 0001199  87.3194 272.7936 15.12112513 56400,6907.896,95.231,530.589,528.932,0.0
54794.0,STARLINK-5392,PAYLOAD,2023-12-11 15:56:03,15.12110792,0.0001267,53.2178,111.1664,100.5095,259.6041,-1.9157e-05,-6.31e-06,0.0,0 STARLINK-5392,1 54794U 22175AN  23345.66392478 -.00000631  00000-0 -19157-4 0  9997,2 54794  53.2178 111.1664 0001267 100.5095 259.6041 15.12110792 54255,6907.901,95.231,530.641,528.891,0.0
54794.0,STARLINK-5392,PAYLOAD,2023-12-12 10:58:11,15.12116576,0.0001306,53.2181,107.5874,107.9186,252.195,1.2317e-05,-8.3e-07,0.0,0 STARLINK-5392,1 54794U 22175AN  23346.45707678 -.00000083  00000-0  12317-4 0  9998,2 54794  53.2181 107.5874 0001306 107.9186 252.1950 15.12116576 54373,6907.883,95.231,530.65,528.846,0.0
54794.0,STARLINK-5392,PAYLOAD,2023-12-12 14:08:33,15.12110542,0.000159,53.219,106.989,109.2415,250.8751,1.6723e-05,-6e-08,0.0,0 STARLINK-5392,1 54794U 22175AN  23346.58927353 -.00000006  00000-0  16723-4 0  9996,2 54794  53.2190 106.9890 0001590 109.2415 250.8751 15.12110542 56552,6907.902,95.231,530.865,528.668,0.0
54794.0,STARLINK-5392,PAYLOAD,2023-12-12 15:43:44,15.1211151,0.0001391,53.2189,106.692,89.6045,270.5108,-1.485e-05,-5.56e-06,0.0,0 STARLINK-5392,1 54794U 22175AN  23346.65537146 -.00000556  00000-0 -14850-4 0  9991,2 54794  53.2189 106.6920 0001391  89.6045 270.5108 15.12111510 56562,6907.899,95.231,530.725,528.803,0.0
54794.0,STARLINK-5392,PAYLOAD,2023-12-13 13:56:14,15.1211179,0.0001436,53.219,102.5165,85.3111,274.8046,6.8315e-05,8.93e-06,0.0,0 STARLINK-5392,1 54794U 22175AN  23347.58071834  .00000893  00000-0  68315-4 0  9998,2 54794  53.2190 102.5165 0001436  85.3111 274.8046 15.12111790 56701,6907.898,95.231,530.755,528.771,0.0
54794.0,STARLINK-5392,PAYLOAD,2023-12-13 15:31:24,15.12114351,0.0001398,53.2188,102.2203,82.7125,277.4028,3.8168e-05,3.68e-06,0.0,0 STARLINK-5392,1 54794U 22175AN  23347.64681486  .00000368  00000-0  38168-4 0  9995,2 54794  53.2188 102.2203 0001398  82.7125 277.4028 15.12114351 56717,6907.89,95.231,530.721,528.789,0.0
54794.0,STARLINK-5392,PAYLOAD,2023-12-14 12:08:43,15.1211991,0.0001526,53.2192,98.3427,72.8608,287.2552,7.2455e-05,9.65e-06,0.0,0 STARLINK-5392,1 54794U 22175AN  23348.50606196  .00000965  00000-0  72455-4 0  9996,2 54794  53.2192  98.3427 0001526  72.8608 287.2552 15.12119910 54685,6907.873,95.231,530.792,528.684,0.0
54794.0,STARLINK-5392,PAYLOAD,2023-12-14 13:43:53,15.12185057,0.0001234,53.2189,98.0443,67.6591,292.4533,-0.00069044,-0.00012329,0.0,0 STARLINK-5392,1 54794U 22175AN  23348.57215155 -.00012329  00000-0 -69044-3 0  9992,2 54794  53.2189  98.0443 0001234  67.6591 292.4533 15.12185057 56858,6907.675,95.226,530.392,528.687,0.0
54794.0,STARLINK-5392,PAYLOAD,2023-12-15 11:56:25,15.12113881,0.0001694,53.22,93.8691,61.8648,298.2516,-4.5739e-05,-1.094e-05,0.0,0 STARLINK-5392,1 54794U 22175AN  23349.49751791 -.00001094  00000-0 -45739-4 0  9998,2 54794  53.2200  93.8691 0001694  61.8648 298.2516 15.12113881 54836,6907.892,95.231,530.927,528.586,0.0
54794.0,STARLINK-5392,PAYLOAD,2023-12-15 13:31:36,15.12117054,0.0001692,53.218,93.5745,59.9321,300.1841,-3.7126e-05,-9.44e-06,0.0,0 STARLINK-5392,1 54794U 22175AN  23349.56361234 -.00000944  00000-0 -37126-4 0  9999,2 54794  53.2180  93.5745 0001692  59.9321 300.1841 15.12117054 57006,6907.882,95.231,530.916,528.578,0.0
54794.0,STARLINK-5392,PAYLOAD,2023-12-15 21:27:29,15.12109387,0.0001699,53.219,92.0851,57.5684,302.5474,0.00020017,3.191e-05,0.0,0 STARLINK-5392,1 54794U 22175AN  23349.89409036  .00003191  00000-0  20017-3 0  9993,2 54794  53.2190  92.0851 0001699  57.5684 302.5474 15.12109387 57055,6907.905,95.231,530.944,528.597,0.0
54794.0,STARLINK-5392,PAYLOAD,2023-12-16 13:19:16,15.12110734,0.0001418,53.2182,89.1103,89.6474,270.4682,2.3351e-05,1.09e-06,0.0,0 STARLINK-5392,1 54794U 22175AN  23350.55505578  .00000109  00000-0  23351-4 0  9997,2 54794  53.2182  89.1103 0001418  89.6474 270.4682 15.12110734 57158,6907.901,95.231,530.746,528.787,0.0
54794.0,STARLINK-5392,PAYLOAD,2023-12-17 13:06:56,15.12135642,0.0001354,53.2178,84.6267,85.8184,274.2964,-5.2838e-05,-1.218e-05,0.0,0 STARLINK-5392,1 54794U 22175AN  23351.54648965 -.00001218  00000-0 -52838-4 0  9991,2 54794  53.2178  84.6267 0001354  85.8184 274.2964 15.12135642 57306,6907.825,95.23,530.626,528.755,0.0
54794.0,STARLINK-5392,PAYLOAD,2023-12-18 11:19:26,15.1211681,0.000135,53.2178,80.4494,105.4485,254.6657,4.1305e-05,4.22e-06,0.0,0 STARLINK-5392,1 54794U 22175AN  23352.47183950  .00000422  00000-0  41305-4 0  9993,2 54794  53.2178  80.4494 0001350 105.4485 254.6657 15.12116810 55283,6907.883,95.231,530.68,528.815,0.0
54794.0,STARLINK-5392,PAYLOAD,2023-12-18 12:54:37,15.1211273,0.0001299,53.218,80.1522,98.758,261.3561,1.328e-05,-6.6e-07,0.0,0 STARLINK-5392,1 54794U 22175AN  23352.53793977 -.00000066  00000-0  13280-4 0  9992,2 54794  53.2180  80.1522 0001299  98.7580 261.3561 15.12112730 57454,6907.895,95.231,530.657,528.863,0.0
54794.0,STARLINK-5392,PAYLOAD,2023-12-19 11:07:08,15.12111773,0.0001286,53.2179,75.9778,100.3594,259.7545,-0.000147,-2.857e-05,0.0,0 STARLINK-5392,1 54794U 22175AN  23353.46329799 -.00002857  00000-0 -14700-3 0  9990,2 54794  53.2179  75.9778 0001286 100.3594 259.7545 15.12111773 55433,6907.898,95.231,530.651,528.875,0.0
54794.0,STARLINK-5392,PAYLOAD,2023-12-19 12:42:19,15.12112041,0.000128,53.218,75.6796,98.4949,261.6189,-0.00014269,-2.782e-05,0.0,0 STARLINK-5392,1 54794U 22175AN  23353.52939416 -.00002782  00000-0 -14269-3 0  9997,2 54794  53.2180  75.6796 0001280  98.4949 261.6189 15.12112041 57603,6907.897,95.231,530.646,528.878,0.0
54794.0,STARLINK-5392,PAYLOAD,2023-12-20 10:54:49,15.12111801,0.0001283,53.2179,71.5057,84.4058,275.7081,5.2178e-05,6.12e-06,0.0,0 STARLINK-5392,1 54794U 22175AN  23354.45473604  .00000612  00000-0  52178-4 0  9992,2 54794  53.2179  71.5057 0001283  84.4058 275.7081 15.12111801 55580,6907.898,95.231,530.649,528.877,0.0
54794.0,STARLINK-5392,PAYLOAD,2023-12-21 12:17:41,15.12111129,0.0001274,53.218,66.7348,83.6202,276.4936,-7.7746e-05,-1.651e-05,0.0,0 STARLINK-5392,1 54794U 22175AN  23355.51228752 -.00001651  00000-0 -77746-4 0  9996,2 54794  53.2180  66.7348 0001274  83.6202 276.4936 15.12111129 55741,6907.9,95.231,530.645,528.885,0.0
54794.0,STARLINK-5392,PAYLOAD,2023-12-21 23:23:57,15.12088856,0.0001548,53.2186,64.647,110.8354,249.2806,0.00020404,3.256e-05,0.0,0 STARLINK-5392,1 54794U 22175AN  23355.97496778  .00003256  00000-0  20404-3 0  9990,2 54794  53.2186  64.6470 0001548 110.8354 249.2806 15.12088856 55817,6907.968,95.232,530.902,528.763,0.0
54794.0,STARLINK-5392,PAYLOAD,2023-12-22 12:05:22,15.12119292,0.000152,53.2183,62.2616,95.2652,264.8515,1.8968e-05,3.3e-07,0.0,0 STARLINK-5392,1 54794U 22175AN  23356.50372705  .00000033  00000-0  18968-4 0  9996,2 54794  53.2183  62.2616 0001520  95.2652 264.8515 15.12119292 55894,6907.875,95.231,530.79,528.69,0.0
54794.0,STARLINK-5392,PAYLOAD,2023-12-23 11:53:03,15.12104961,0.000178,53.2191,57.7936,70.1344,289.9841,0.0001387,2.119e-05,0.0,0 STARLINK-5392,1 54794U 22175AN  23357.49517947  .00002119  00000-0  13870-3 0  9997,2 54794  53.2191  57.7936 0001780  70.1344 289.9841 15.12104961 56040,6907.919,95.231,531.013,528.554,0.0
54794.0,STARLINK-5392,PAYLOAD,2023-12-23 13:28:13,15.12114197,0.0001578,53.2181,57.4897,94.1879,265.9295,7.3304e-05,9.8e-06,0.0,0 STARLINK-5392,1 54794U 22175AN  23357.56127101  .00000980  00000-0  73304-4 0  9997,2 54794  53.2181  57.4897 0001578  94.1879 265.9295 15.12114197 58216,6907.891,95.231,530.846,528.665,0.0
54794.0,STARLINK-5392,PAYLOAD,2023-12-24 11:40:44,15.12115363,0.0001476,53.2193,53.3133,96.4082,263.708,-4.8597e-05,-1.144e-05,0.0,0 STARLINK-5392,1 54794U 22175AN  23358.48662530 -.00001144  00000-0 -48597-4 0  9990,2 54794  53.2193  53.3133 0001476  96.4082 263.7080 15.12115363 58354,6907.887,95.231,530.772,528.732,0.0
54794.0,STARLINK-5392,PAYLOAD,2023-12-25 03:32:31,15.12118401,0.0001472,53.2192,50.332,107.9104,252.205,6.2943e-05,7.99e-06,0.0,0 STARLINK-5392,1 54794U 22175AN  23359.14758108  .00000799  00000-0  62943-4 0  9995,2 54794  53.2192  50.3320 0001472 107.9104 252.2050 15.12118401 56294,6907.878,95.231,530.76,528.726,0.0
54794.0,STARLINK-5392,PAYLOAD,2023-12-25 09:53:13,15.12124548,0.0001589,53.2191,49.1412,93.5082,266.6093,0.00010631,1.555e-05,0.0,0 STARLINK-5392,1 54794U 22175AN  23359.41196117  .00001555  00000-0  10631-3 0  9998,2 54794  53.2191  49.1412 0001589  93.5082 266.6093 15.12124548 58494,6907.859,95.23,530.822,528.626,0.0
54794.0,STARLINK-5392,PAYLOAD,2023-12-26 03:20:12,15.12112567,0.0002216,53.2188,45.8641,46.0297,314.088,-1.6976e-05,-5.94e-06,0.0,0 STARLINK-5392,1 54794U 22175AN  23360.13903614 -.00000594  00000-0 -16976-4 0  9990,2 54794  53.2188  45.8641 0002216  46.0297 314.0880 15.12112567 56449,6907.896,95.231,531.291,528.23,0.0
